OBJECT_NAME,OBJECT_ID,EPOCH,MEAN_MOTION,ECCENTRICITY,INCLINATION,RA_OF_ASC_NODE,ARG_OF_PERICENTER,MEAN_ANOMALY,EPHEMERIS_TYPE,CLASSIFICATION_TYPE,NORAD_CAT_ID,ELEMENT_SET_NO,REV_AT_EPOCH,BSTAR,MEAN_MOTION_DOT,MEAN_MOTION_DDOT
GEOSCAN 3 (RS92S3),2025-155T,2026-07-11T11:53:36.644928,15.36223720,.0008647,97.4542,162.6714,96.8911,263.3317,0,U,64893,999,8458,.30764E-3,.10794E-3,0
INNOSAT 3 (RS92S0),2025-155U,2026-07-11T11:24:18.902592,15.45622005,.0008354,97.4487,164.5852,99.3643,260.8550,0,U,64894,999,8471,.50733E-3,.24413E-3,0
KNACKSAT-2,1998-067XZ,2026-07-11T08:33:41.694048,15.62129323,.0008194,51.6254,172.7064,314.9456,45.0873,0,U,67683,999,2405,.40006E-3,.35473E-3,0
