GEOSCAN 3 (RS92S3)      
1 64893U 25155T   26192.49556302  .00010794  00000+0  30764-3 0  9995
2 64893  97.4542 162.6714 0008647  96.8911 263.3317 15.36223720 84580
INNOSAT 3 (RS92S0)      
1 64894U 25155U   26192.47521878  .00024413  00000+0  50733-3 0  9995
2 64894  97.4487 164.5852 0008354  99.3643 260.8550 15.45622005 84713
KNACKSAT-2              
1 67683U 98067XZ  26192.35673257  .00035473  00000+0  40006-3 0  9992
2 67683  51.6254 172.7064 0008194 314.9456  45.0873 15.62129323 24058
